IRIDIUM 126             
1 42809U 17039G   24199.50993789  .00000272  00000+0  89956-4 0  9999
2 42809  86.3966 286.0240 0002271  99.0925 261.0527 14.34216853369661
IRIDIUM 124             
1 42810U 17039H   24199.57360789  .00000094  00000+0  21978-4 0  9998
2 42810  86.4488 222.7312 0002611  86.5167 273.6332 14.43277705374209
IRIDIUM 128             
1 42811U 17039J   24199.57044810  .00000048  00000+0  10109-4 0  9996
2 42811  86.3988 317.5300 0002398  95.3225 264.8244 14.34217989369700
IRIDIUM 121             
1 42812U 17039K   24199.59874322  .00000036  00000+0  57460-5 0  9997
2 42812  86.3967 286.0096 0002280  93.5854 266.5602 14.34214275369553
IRIDIUM 133             
1 42955U 17061A   24199.60215917  .00000177  00000+0  56031-4 0  9999
2 42955  86.3990 317.6171 0002199  98.3091 261.8354 14.34219120354502
IRIDIUM 100             
1 42956U 17061B   24199.87489168  .00000236  00000+0  77341-4 0  9993
2 42956  86.3988 317.4380 0002154  96.3410 263.8031 14.34218144354569
IRIDIUM 122             
1 42957U 17061C   24199.56410460  .00000327  00000+0  10980-3 0  9995
2 42957  86.3989 317.5664 0002238  98.2028 261.9422 14.34218244354504
IRIDIUM 129             
1 42958U 17061D   24199.79878166 -.00000029  00000+0 -17506-4 0  9995
2 42958  86.3988 317.5281 0002220 102.5088 257.6356 14.34217406354557
