<?xml version="1.0" encoding="UTF-8"?>
<ndm xmlns:xsi="http://www.w3.org/2001/XMLSchema-instance" xsi:noNamespaceSchemaLocation="https://sanaregistry.org/r/ndmxml_unqualified/ndmxml-2.0.0-master-2.0.xsd">
<omm id="CCSDS_OMM_VERS" version="2.0">
<header><CREATION_DATE/><ORIGINATOR/></header><body><segment><metadata><OBJECT_NAME>IRIDIUM 126</OBJECT_NAME><OBJECT_ID>2017-039G</OBJECT_ID><CENTER_NAME>EARTH</CENTER_NAME><REF_FRAME>TEME</REF_FRAME><TIME_SYSTEM>UTC</TIME_SYSTEM><MEAN_ELEMENT_THEORY>SGP4</MEAN_ELEMENT_THEORY></metadata><data><meanElements><EPOCH>2024-07-17T12:14:18.633696</EPOCH><MEAN_MOTION>14.34216853</MEAN_MOTION><ECCENTRICITY>.0002271</ECCENTRICITY><INCLINATION>86.3966</INCLINATION><RA_OF_ASC_NODE>286.0240</RA_OF_ASC_NODE><ARG_OF_PERICENTER>99.0925</ARG_OF_PERICENTER><MEAN_ANOMALY>261.0527</MEAN_ANOMALY></meanElements><tleParameters><EPHEMERIS_TYPE>0</EPHEMERIS_TYPE><CLASSIFICATION_TYPE>U</CLASSIFICATION_TYPE><NORAD_CAT_ID>42809</NORAD_CAT_ID><ELEMENT_SET_NO>999</ELEMENT_SET_NO><REV_AT_EPOCH>36966</REV_AT_EPOCH><BSTAR>.89956E-4</BSTAR><MEAN_MOTION_DOT>.272E-5</MEAN_MOTION_DOT><MEAN_MOTION_DDOT>0</MEAN_MOTION_DDOT></tleParameters></data></segment></body></omm>
<omm id="CCSDS_OMM_VERS" version="2.0">
<header><CREATION_DATE/><ORIGINATOR/></header><body><segment><metadata><OBJECT_NAME>IRIDIUM 124</OBJECT_NAME><OBJECT_ID>2017-039H</OBJECT_ID><CENTER_NAME>EARTH</CENTER_NAME><REF_FRAME>TEME</REF_FRAME><TIME_SYSTEM>UTC</TIME_SYSTEM><MEAN_ELEMENT_THEORY>SGP4</MEAN_ELEMENT_THEORY></metadata><data><meanElements><EPOCH>2024-07-17T13:45:59.721696</EPOCH><MEAN_MOTION>14.43277705</MEAN_MOTION><ECCENTRICITY>.0002611</ECCENTRICITY><INCLINATION>86.4488</INCLINATION><RA_OF_ASC_NODE>222.7312</RA_OF_ASC_NODE><ARG_OF_PERICENTER>86.5167</ARG_OF_PERICENTER><MEAN_ANOMALY>273.6332</MEAN_ANOMALY></meanElements><tleParameters><EPHEMERIS_TYPE>0</EPHEMERIS_TYPE><CLASSIFICATION_TYPE>U</CLASSIFICATION_TYPE><NORAD_CAT_ID>42810</NORAD_CAT_ID><ELEMENT_SET_NO>999</ELEMENT_SET_NO><REV_AT_EPOCH>37420</REV_AT_EPOCH><BSTAR>.21978E-4</BSTAR><MEAN_MOTION_DOT>.94E-6</MEAN_MOTION_DOT><MEAN_MOTION_DDOT>0</MEAN_MOTION_DDOT></tleParameters></data></segment></body></omm>
<omm id="CCSDS_OMM_VERS" version="2.0">
<header><CREATION_DATE/><ORIGINATOR/></header><body><segment><metadata><OBJECT_NAME>IRIDIUM 128</OBJECT_NAME><OBJECT_ID>2017-039J</OBJECT_ID><CENTER_NAME>EARTH</CENTER_NAME><REF_FRAME>TEME</REF_FRAME><TIME_SYSTEM>UTC</TIME_SYSTEM><MEAN_ELEMENT_THEORY>SGP4</MEAN_ELEMENT_THEORY></metadata><data><meanElements><EPOCH>2024-07-17T13:41:26.715840</EPOCH><MEAN_MOTION>14.34217989</MEAN_MOTION><ECCENTRICITY>.0002398</ECCENTRICITY><INCLINATION>86.3988</INCLINATION><RA_OF_ASC_NODE>317.5300</RA_OF_ASC_NODE><ARG_OF_PERICENTER>95.3225</ARG_OF_PERICENTER><MEAN_ANOMALY>264.8244</MEAN_ANOMALY></meanElements><tleParameters><EPHEMERIS_TYPE>0</EPHEMERIS_TYPE><CLASSIFICATION_TYPE>U</CLASSIFICATION_TYPE><NORAD_CAT_ID>42811</NORAD_CAT_ID><ELEMENT_SET_NO>999</ELEMENT_SET_NO><REV_AT_EPOCH>36970</REV_AT_EPOCH><BSTAR>.10109E-4</BSTAR><MEAN_MOTION_DOT>.48E-6</MEAN_MOTION_DOT><MEAN_MOTION_DDOT>0</MEAN_MOTION_DDOT></tleParameters></data></segment></body></omm>
<omm id="CCSDS_OMM_VERS" version="2.0">
<header><CREATION_DATE/><ORIGINATOR/></header><body><segment><metadata><OBJECT_NAME>IRIDIUM 121</OBJECT_NAME><OBJECT_ID>2017-039K</OBJECT_ID><CENTER_NAME>EARTH</CENTER_NAME><REF_FRAME>TEME</REF_FRAME><TIME_SYSTEM>UTC</TIME_SYSTEM><MEAN_ELEMENT_THEORY>SGP4</MEAN_ELEMENT_THEORY></metadata><data><meanElements><EPOCH>2024-07-17T14:22:11.414208</EPOCH><MEAN_MOTION>14.34214275</MEAN_MOTION><ECCENTRICITY>.000228</ECCENTRICITY><INCLINATION>86.3967</INCLINATION><RA_OF_ASC_NODE>286.0096</RA_OF_ASC_NODE><ARG_OF_PERICENTER>93.5854</ARG_OF_PERICENTER><MEAN_ANOMALY>266.5602</MEAN_ANOMALY></meanElements><tleParameters><EPHEMERIS_TYPE>0</EPHEMERIS_TYPE><CLASSIFICATION_TYPE>U</CLASSIFICATION_TYPE><NORAD_CAT_ID>42812</NORAD_CAT_ID><ELEMENT_SET_NO>999</ELEMENT_SET_NO><REV_AT_EPOCH>36955</REV_AT_EPOCH><BSTAR>.5746E-5</BSTAR><MEAN_MOTION_DOT>.36E-6</MEAN_MOTION_DOT><MEAN_MOTION_DDOT>0</MEAN_MOTION_DDOT></tleParameters></data></segment></body></omm>
<omm id="CCSDS_OMM_VERS" version="2.0">
<header><CREATION_DATE/><ORIGINATOR/></header><body><segment><metadata><OBJECT_NAME>IRIDIUM 133</OBJECT_NAME><OBJECT_ID>2017-061A</OBJECT_ID><CENTER_NAME>EARTH</CENTER_NAME><REF_FRAME>TEME</REF_FRAME><TIME_SYSTEM>UTC</TIME_SYSTEM><MEAN_ELEMENT_THEORY>SGP4</MEAN_ELEMENT_THEORY></metadata><data><meanElements><EPOCH>2024-07-17T14:27:06.552288</EPOCH><MEAN_MOTION>14.34219120</MEAN_MOTION><ECCENTRICITY>.0002199</ECCENTRICITY><INCLINATION>86.3990</INCLINATION><RA_OF_ASC_NODE>317.6171</RA_OF_ASC_NODE><ARG_OF_PERICENTER>98.3091</ARG_OF_PERICENTER><MEAN_ANOMALY>261.8354</MEAN_ANOMALY></meanElements><tleParameters><EPHEMERIS_TYPE>0</EPHEMERIS_TYPE><CLASSIFICATION_TYPE>U</CLASSIFICATION_TYPE><NORAD_CAT_ID>42955</NORAD_CAT_ID><ELEMENT_SET_NO>999</ELEMENT_SET_NO><REV_AT_EPOCH>35450</REV_AT_EPOCH><BSTAR>.56031E-4</BSTAR><MEAN_MOTION_DOT>.177E-5</MEAN_MOTION_DOT><MEAN_MOTION_DDOT>0</MEAN_MOTION_DDOT></tleParameters></data></segment></body></omm>
<omm id="CCSDS_OMM_VERS" version="2.0">
<header><CREATION_DATE/><ORIGINATOR/></header><body><segment><metadata><OBJECT_NAME>IRIDIUM 100</OBJECT_NAME><OBJECT_ID>2017-061B</OBJECT_ID><CENTER_NAME>EARTH</CENTER_NAME><REF_FRAME>TEME</REF_FRAME><TIME_SYSTEM>UTC</TIME_SYSTEM><MEAN_ELEMENT_THEORY>SGP4</MEAN_ELEMENT_THEORY></metadata><data><meanElements><EPOCH>2024-07-17T20:59:50.641152</EPOCH><MEAN_MOTION>14.34218144</MEAN_MOTION><ECCENTRICITY>.0002154</ECCENTRICITY><INCLINATION>86.3988</INCLINATION><RA_OF_ASC_NODE>317.4380</RA_OF_ASC_NODE><ARG_OF_PERICENTER>96.3410</ARG_OF_PERICENTER><MEAN_ANOMALY>263.8031</MEAN_ANOMALY></meanElements><tleParameters><EPHEMERIS_TYPE>0</EPHEMERIS_TYPE><CLASSIFICATION_TYPE>U</CLASSIFICATION_TYPE><NORAD_CAT_ID>42956</NORAD_CAT_ID><ELEMENT_SET_NO>999</ELEMENT_SET_NO><REV_AT_EPOCH>35456</REV_AT_EPOCH><BSTAR>.77341E-4</BSTAR><MEAN_MOTION_DOT>.236E-5</MEAN_MOTION_DOT><MEAN_MOTION_DDOT>0</MEAN_MOTION_DDOT></tleParameters></data></segment></body></omm>
<omm id="CCSDS_OMM_VERS" version="2.0">
<header><CREATION_DATE/><ORIGINATOR/></header><body><segment><metadata><OBJECT_NAME>IRIDIUM 122</OBJECT_NAME><OBJECT_ID>2017-061C</OBJECT_ID><CENTER_NAME>EARTH</CENTER_NAME><REF_FRAME>TEME</REF_FRAME><TIME_SYSTEM>UTC</TIME_SYSTEM><MEAN_ELEMENT_THEORY>SGP4</MEAN_ELEMENT_THEORY></metadata><data><meanElements><EPOCH>2024-07-17T13:32:18.637440</EPOCH><MEAN_MOTION>14.34218244</MEAN_MOTION><ECCENTRICITY>.0002238</ECCENTRICITY><INCLINATION>86.3989</INCLINATION><RA_OF_ASC_NODE>317.5664</RA_OF_ASC_NODE><ARG_OF_PERICENTER>98.2028</ARG_OF_PERICENTER><MEAN_ANOMALY>261.9422</MEAN_ANOMALY></meanElements><tleParameters><EPHEMERIS_TYPE>0</EPHEMERIS_TYPE><CLASSIFICATION_TYPE>U</CLASSIFICATION_TYPE><NORAD_CAT_ID>42957</NORAD_CAT_ID><ELEMENT_SET_NO>999</ELEMENT_SET_NO><REV_AT_EPOCH>35450</REV_AT_EPOCH><BSTAR>.1098E-3</BSTAR><MEAN_MOTION_DOT>.327E-5</MEAN_MOTION_DOT><MEAN_MOTION_DDOT>0</MEAN_MOTION_DDOT></tleParameters></data></segment></body></omm>
<omm id="CCSDS_OMM_VERS" version="2.0">
<header><CREATION_DATE/><ORIGINATOR/></header><body><segment><metadata><OBJECT_NAME>IRIDIUM 129</OBJECT_NAME><OBJECT_ID>2017-061D</OBJECT_ID><CENTER_NAME>EARTH</CENTER_NAME><REF_FRAME>TEME</REF_FRAME><TIME_SYSTEM>UTC</TIME_SYSTEM><MEAN_ELEMENT_THEORY>SGP4</MEAN_ELEMENT_THEORY></metadata><data><meanElements><EPOCH>2024-07-17T19:10:14.735424</EPOCH><MEAN_MOTION>14.34217406</MEAN_MOTION><ECCENTRICITY>.000222</ECCENTRICITY><INCLINATION>86.3988</INCLINATION><RA_OF_ASC_NODE>317.5281</RA_OF_ASC_NODE><ARG_OF_PERICENTER>102.5088</ARG_OF_PERICENTER><MEAN_ANOMALY>257.6356</MEAN_ANOMALY></meanElements><tleParameters><EPHEMERIS_TYPE>0</EPHEMERIS_TYPE><CLASSIFICATION_TYPE>U</CLASSIFICATION_TYPE><NORAD_CAT_ID>42958</NORAD_CAT_ID><ELEMENT_SET_NO>999</ELEMENT_SET_NO><REV_AT_EPOCH>35455</REV_AT_EPOCH><BSTAR>-.17506E-4</BSTAR><MEAN_MOTION_DOT>-.29E-6</MEAN_MOTION_DOT><MEAN_MOTION_DDOT>0</MEAN_MOTION_DDOT></tleParameters></data></segment></body></omm>

</ndm>
